[Satellite]
VERSION=1.1
NAME=COSMOS 2221
NICKNAME=COSMOS 2221
TLE1=1 22236U 92080A   22342.01984407  .00001443  00000+0  15112-3 0  9994
TLE2=2 22236  82.5061 329.4999 0015898 195.5769 164.4962 14.88857967603652
STATUS=0
